#cP2017  5 29  0  0  0.00000000      96 ORBIT IGS14 HLM  IGS
## 1951  86400.00000000   900.00000000 57902 0.0000000000000
+   32   G01G02G03G04G05G06G07G08G09G10G11G12G13G14G15G16G17
+        G18G19G20G21G22G23G24G25G26G27G28G29G30G31G32  0  0
+          0  0  0  0  0  0  0  0  0  0  0  0  0  0  0  0  0
+          0  0  0  0  0  0  0  0  0  0  0  0  0  0  0  0  0
+          0  0  0  0  0  0  0  0  0  0  0  0  0  0  0  0  0
++         2  2  3  0  2  2  2  2  2  2  2  3  2  2  2  2  2
++         2  2  2  3  2  2  2  2  2  2  2  3  2  2  2  0  0
++         0  0  0  0  0  0  0  0  0  0  0  0  0  0  0  0  0
++         0  0  0  0  0  0  0  0  0  0  0  0  0  0  0  0  0
++         0  0  0  0  0  0  0  0  0  0  0  0  0  0  0  0  0
%c G  cc GPS ccc cccc cccc cccc cccc ccccc ccccc ccccc ccccc
%c cc cc ccc ccc cccc cccc cccc cccc ccccc ccccc ccccc ccccc
%f  1.2500000  1.025000000  0.00000000000  0.000000000000000
%f  0.0000000  0.000000000  0.00000000000  0.000000000000000
%i    0    0    0    0      0      0      0      0         0
%i    0    0    0    0      0      0      0      0         0
/* RAPID ORBIT COMBINATION FROM WEIGHTED AVERAGE OF:        
/* cod emr esa gfz jpl ngs sio usn whu                      
/* REFERENCED TO IGS TIME (IGST) AND TO WEIGHTED MEAN POLE: 
/* PCV:IGS14_1930 OL/AL:FES2004  NONE     Y  ORB:CMB CLK:CMB
*  2017  5 29  2 15  0.00000000
PG01  12755.274175  13473.792337 -19221.082773     55.255833  6  7  2  86       
PG02   9976.966227 -14816.017976  20068.195103    410.021481  6  4  3  89       
PG03  13649.673928  22778.978282   1124.508767    -98.050361  4  8  6 100       
PG04 -14757.837855  10675.907942  19441.389073 999999.999999
PG05   1589.664003 -20705.946153  16358.418184    -43.897435  7  3  6 119       
PG06  23537.853418  -6847.445579  10269.826571    357.084547  3  8  6 110       
PG07  24079.520654   7310.785567   9334.487643    346.142673  5  7  7 117       
PG08  -3234.211881  23015.989562 -12712.845979    -61.305233  7  6  6  90       
PG09  14363.869721   5742.413896  21568.583619    373.098817  6  8  5 108       
PG10 -16293.074030    991.440417 -20943.238018    -41.193292  5  7  6  96       
PG11   6674.583424  15377.413130 -21170.982170   -691.416621  4  6  5 125       
PG12  -8982.202787 -24787.754985  -4199.696943    382.602713 10  3  1 119       
PG13  10966.389803 -23010.283558  -7667.328385    -83.461703 10  7  6 115       
PG14 -18543.002693  17186.807378  -7577.006380    -72.419087  8  8  3 102       
PG15  -2221.977030 -21402.360063 -15498.750916   -350.762303  9  6  5  98       
PG16  -3443.360796  19577.894627  17276.571274     34.038292  6  6  7  75       
PG17  18900.486561  -9995.706215 -15298.911318   -177.412319  8  7  4 111       
PG18 -19272.912378  -8866.352369 -15516.075927    617.649981  5  6  5 119       
PG19  19402.511051 -16041.432924  -9167.329275   -501.892337  6  4  6 126       
PG20 -12319.040016 -23144.837502   4119.917706    474.030118  8  6  7  87       
PG21 -26068.875008  -3108.721818   5178.110414   -504.262325  9  8 11 105       
PG22   8000.482550  23995.156749  -7766.057587     -4.914473  6  6  5 102       
PG23   7071.897518  16335.645755  19822.485810   -212.621410  5  7  6  82       
PG24 -10078.961670 -14322.431390 -20120.036101    -35.473333  8  7  6 111       
PG25 -17066.713079 -18427.265490   8810.494678   -395.315436  5  7  2 102       
PG26 -10492.236040  11796.950517  21341.922231   -498.686842  6  8  7 107       
PG27 -12126.067922  23406.430916  -2101.681209    265.904965  7  9  5 116       
PG28  16305.908514   4056.309696 -19942.996411    616.524546  9  8  3 127       
PG29 -11591.900047  -9186.164369  22053.000918    600.130080  7  6  7  81       
PG30  26420.460591   -488.860156  -3343.759967    155.608681  9  6  8 124       
PG31 -22702.597580   7359.052469  12131.667965    198.168978  7  7  7  69       
PG32 -18772.409266  11704.723839 -14641.188032   -426.230619  3  5  5 117       
*  2017  5 29  2 30  0.00000000
PG01  10519.401360  13592.351823 -20435.227618     55.256228  6  7  2 102       
PG02  12121.692376 -14823.787980  18780.440078    410.014435  6  5  3  93       
PG03  13411.949631  22882.436507  -1726.282139    -98.048519  5  8  5 108       
PG04 -16811.006735  10296.284018  17835.354504 999999.999999
PG05   2809.703206 -19116.802537  18051.811117    -43.895778  7  4  7 114       
PG06  24564.002367  -6656.836196   7654.746591    357.089157  4  7  6 109       
PG07  22906.099047   7495.369473  11815.490843    346.138886  4  7  7 113       
PG08  -4046.659883  24082.921217 -10271.624764    -61.306213  7  7  6 102       
PG09  13194.179159   7927.337177  21622.150716    373.106039  6  8  5 108       
PG10 -17443.644190  -1055.564416 -20003.513972    -41.183768  5  7  6 114       
PG11   4543.091198  16304.024813 -21043.881356   -691.419122  5  6  5 127       
PG12  -8560.467825 -24313.189332  -7004.641368    382.601771 10  2  1 126       
PG13  11550.697785 -23459.337525  -4917.551303    -83.462765  9  7  6 124       
PG14 -18170.568244  16168.519253 -10192.778965    -72.420433  7  7  3 115       
PG15  -1285.122625 -22788.882852 -13438.273862   -350.762890  9  6  5  94       
PG16  -4498.916278  17753.357860  18948.646179     34.038783  6  7  7  84       
PG17  18021.665866  -8277.390685 -17232.875744   -177.410897  8  8  4 109       
PG18 -20031.340392 -10470.468496 -13519.492293    617.651730  6  6  4 125       
PG19  18886.271278 -15004.841789 -11699.972399   -501.891329  7  5  7 132       
PG20 -11659.715429 -22831.960078   6810.925094    474.031060  8  6  7  92       
PG21 -25430.868187  -3427.645830   7854.769825   -504.260389  8  7 11 101       
PG22   7126.353259  23291.202847 -10279.758912     -4.925383  7  5  5 101       
PG23   5907.144328  18167.692362  18512.367884   -212.621932  5  7  5  81       
PG24  -7753.194808 -14524.242148 -20969.840320    -35.473260  8  7  6 102       
PG25 -17354.362120 -19264.267807   6106.401735   -395.321385  5  6  3 112       
PG26 -11824.100767   9722.301295  21696.199705   -498.682374  5  8  6  96       
PG27 -12362.278580  23356.544801    794.212143    265.911005  7  9  5 118       
PG28  17255.174434   6178.386601 -18595.873396    616.527058  8  8  4 130       
PG29 -10243.240577 -11293.445802  21742.931234    600.126916  8  6  7  93       
PG30  26630.047391   -201.046241   -532.516397    155.607685  9  7  7 123       
PG31 -23925.153654   7167.312063   9662.755071    198.166850  7  7  6  63       
PG32 -18080.652898  10038.651665 -16617.388852   -426.239603  2  5  6 125       
*  2017  5 29  2 45  0.00000000
PG01   8174.508016  13839.981852 -21303.300272     55.256604  6  6  2  95       
PG02  14108.945019 -14918.881352  17178.852874    410.007789  5  5  2  95       
PG03  12998.322744  22733.668624  -4547.425798    -98.046655  6  7  4 102       
PG04 -18689.228017  10042.447026  15923.267481 999999.999999
PG05   4206.894661 -17448.139848  19430.420074    -43.894207  7  5  7 117       
PG06  25296.404904  -6495.939407   4908.156566    357.093762  4  7  6 109       
PG07  21478.178905   7758.024737  14099.457125    346.134801  3  7  7 117       
PG08  -4680.435211  24930.351544  -7652.271347    -61.307010  7  7  6  83       
PG09  12143.504892  10155.434849  21302.885318    373.113325  6  7  5  98       
PG10 -18626.890055  -2935.550697 -18719.643747    -41.174213  5  7  6 113       
PG11   2483.631071  17308.976463 -20572.255272   -691.421576  6  6  4 123       
PG12  -7952.385292 -23598.971490  -9691.062434    382.600995 10  2  1 113       
PG13  11943.245205 -23671.384647  -2083.593586    -83.463960  9  8  5 123       
PG14 -17708.047264  14880.322140 -12629.335958    -72.421550  7  7  4 101       
PG15   -501.598215 -23990.578916 -11144.636698   -350.763582  9  7  5  98       
PG16  -5739.962488  15842.995842  20286.933442     34.039142  6  7  7  84       
PG17  17140.417081  -6331.689274 -18860.476847   -177.409347  7  7  4 103       
PG18 -20717.397955 -11839.723602 -11284.261732    617.653036  7  7  4 129       
PG19  18288.164940 -13708.117204 -14036.809032   -501.890018  7  5  8 123       
PG20 -10794.820899 -22322.518103   9384.244658    474.032668  8  5  7  93       
PG21 -24523.170914  -3805.684083  10400.416804   -504.258242  8  7 11  81       
PG22   6054.101058  22408.422013 -12614.053605     -4.936364  7  4  3 108       
PG23   4901.388491  19908.979846  16885.203232   -212.622385  6  7  5  70       
PG24  -5363.471491 -14851.045105 -21462.873855    -35.474065  8  7  6  90       
PG25 -17512.128416 -19825.799699   3298.106215   -395.327277  5  6  4 102       
PG26 -13271.942090   7704.534876  21676.856267   -498.677809  6  8  6 102       
PG27 -12461.006668  23021.072695   3676.242684    265.917062  8 10  5 113       
PG28  18230.794401   8088.533667 -16911.940684    616.530122  7  7  5 113       
PG29  -9040.518311 -13422.348894  21058.564432    600.123996  8  6  6 104       
PG30  26536.695133     81.698351   2287.812184    155.606594  8  8  7 125       
PG31 -24870.139645   7028.360346   7031.581243    198.164999  7  7  6  96       
PG32 -17387.632509   8151.191156 -18306.637827   -426.248608  2  5  6 116       
EOF
